{"fetched_at":"2026-07-21T07:07:19.585Z","source":"https://celestrak.org/NORAD/elements/gp.php?NAME=UMBRA&FORMAT=JSON","constellation":"umbra","records":[{"OBJECT_NAME":"UMBRA-07","OBJECT_ID":"2023-174AT","EPOCH":"2026-07-20T17:10:39.643104","CLASSIFICATION_TYPE":"U","MEAN_MOTION":15.09671925,"ECCENTRICITY":0.0001637,"INCLINATION":97.3769,"RA_OF_ASC_NODE":256.2177,"ARG_OF_PERICENTER":351.8448,"MEAN_ANOMALY":8.2754,"EPHEMERIS_TYPE":0,"NORAD_CAT_ID":58297,"ELEMENT_SET_NO":999,"REV_AT_EPOCH":14847,"BSTAR":0.00033678256,"MEAN_MOTION_DOT":0.00005363,"MEAN_MOTION_DDOT":0},{"OBJECT_NAME":"UMBRA-09","OBJECT_ID":"2024-149CB","EPOCH":"2026-07-20T22:29:43.519200","CLASSIFICATION_TYPE":"U","MEAN_MOTION":15.18956657,"ECCENTRICITY":0.00021927,"INCLINATION":97.6961,"RA_OF_ASC_NODE":289.7434,"ARG_OF_PERICENTER":190.7346,"MEAN_ANOMALY":169.3841,"EPHEMERIS_TYPE":0,"NORAD_CAT_ID":60541,"ELEMENT_SET_NO":999,"REV_AT_EPOCH":10584,"BSTAR":0.00055942021,"MEAN_MOTION_DOT":0.0001163,"MEAN_MOTION_DDOT":0},{"OBJECT_NAME":"UMBRA-10","OBJECT_ID":"2024-149CH","EPOCH":"2026-07-20T22:29:04.609824","CLASSIFICATION_TYPE":"U","MEAN_MOTION":15.18953069,"ECCENTRICITY":0.00020049,"INCLINATION":97.6966,"RA_OF_ASC_NODE":289.7735,"ARG_OF_PERICENTER":157.4224,"MEAN_ANOMALY":202.7098,"EPHEMERIS_TYPE":0,"NORAD_CAT_ID":60547,"ELEMENT_SET_NO":999,"REV_AT_EPOCH":10585,"BSTAR":0.00055799326,"MEAN_MOTION_DOT":0.00011599,"MEAN_MOTION_DDOT":0},{"OBJECT_NAME":"UMBRA-11","OBJECT_ID":"2025-276CL","EPOCH":"2026-07-20T22:20:34.115424","CLASSIFICATION_TYPE":"U","MEAN_MOTION":15.27919533,"ECCENTRICITY":0.00032129,"INCLINATION":97.4178,"RA_OF_ASC_NODE":276.38,"ARG_OF_PERICENTER":170.1229,"MEAN_ANOMALY":190.0074,"EPHEMERIS_TYPE":0,"NORAD_CAT_ID":66748,"ELEMENT_SET_NO":999,"REV_AT_EPOCH":3564,"BSTAR":0.00055849924,"MEAN_MOTION_DOT":0.00015161,"MEAN_MOTION_DDOT":0},{"OBJECT_NAME":"UMBRA-12","OBJECT_ID":"2026-004J","EPOCH":"2026-07-20T10:17:11.161824","CLASSIFICATION_TYPE":"U","MEAN_MOTION":14.89557569,"ECCENTRICITY":0.00070475,"INCLINATION":97.8032,"RA_OF_ASC_NODE":199.7446,"ARG_OF_PERICENTER":38.861,"MEAN_ANOMALY":321.3113,"EPHEMERIS_TYPE":0,"NORAD_CAT_ID":67371,"ELEMENT_SET_NO":999,"REV_AT_EPOCH":2825,"BSTAR":0.00025342646,"MEAN_MOTION_DOT":0.00002363,"MEAN_MOTION_DDOT":0}]}
